OBJECT_NAME,OBJECT_ID,EPOCH,MEAN_MOTION,ECCENTRICITY,INCLINATION,RA_OF_ASC_NODE,ARG_OF_PERICENTER,MEAN_ANOMALY,EPHEMERIS_TYPE,CLASSIFICATION_TYPE,NORAD_CAT_ID,ELEMENT_SET_NO,REV_AT_EPOCH,BSTAR,MEAN_MOTION_DOT,MEAN_MOTION_DDOT
ONEWEB-0198,2021-031G,2026-06-22T13:19:07.858848,13.14503092,.00022074,87.8960,288.6413,111.3998,248.7368,0,U,48216,999,24919,.27607118E-3,.115E-5,0
ONEWEB-0189,2021-031H,2026-06-22T13:37:11.485056,13.14503816,.00021178,87.8973,288.6256,109.3802,250.7556,0,U,48217,999,24893,-.2228248E-3,-.7E-6,0
ONEWEB-0196,2021-031J,2026-06-22T14:54:50.211936,13.14503910,.00020496,87.8969,288.6238,104.0147,256.1211,0,U,48218,999,24894,.62778233E-3,.246E-5,0
ONEWEB-0183,2021-031K,2026-06-22T14:18:17.639136,13.14504242,.00020534,87.8965,288.6266,96.0521,264.0842,0,U,48219,999,24903,.52085372E-4,.32E-6,0
ONEWEB-0185,2021-031L,2026-06-22T14:55:58.200960,13.14503309,.00023813,87.8976,288.6154,98.8016,261.3384,0,U,48220,999,24896,.75762363E-3,.294E-5,0
ONEWEB-0187,2021-031M,2026-06-22T16:16:49.624896,13.14502337,.00021244,87.8965,288.6192,103.2203,256.9164,0,U,48221,999,24898,.28409778E-3,.118E-5,0
ONEWEB-0192,2021-031N,2026-06-22T13:44:02.287680,13.14502365,.00019863,87.8968,288.6309,103.5888,256.5464,0,U,48222,999,24888,-.24545582E-3,-.78E-6,0
ONEWEB-0219,2021-031P,2026-06-22T13:14:20.459616,13.14501958,.0002216,87.8971,288.6272,101.8493,258.2886,0,U,48223,999,24908,.47479735E-3,.189E-5,0
ONEWEB-0202,2021-031Q,2026-06-22T07:18:08.184096,13.14503428,.00020798,87.8970,288.6890,120.8771,239.2564,0,U,48224,999,24903,.66634361E-3,.26E-5,0
ONEWEB-0204,2021-031R,2026-06-22T13:36:01.964160,13.14502608,.00021354,87.8971,288.6310,89.7858,270.3517,0,U,48225,999,24896,-.27978197E-3,-.91E-6,0
ONEWEB-0205,2021-031S,2026-06-22T14:50:15.238752,13.14501747,.00022226,87.8977,288.6145,104.7618,255.3758,0,U,48226,999,24898,.6736042E-3,.263E-5,0
ONEWEB-0206,2021-031T,2026-06-22T17:50:39.133536,13.14504665,.00017964,87.8971,288.5908,98.4673,261.6660,0,U,48227,999,24895,-.28930152E-3,-.94E-6,0
ONEWEB-0182,2021-031U,2026-06-22T17:43:48.897696,13.14503020,.00020788,87.8969,288.5991,94.9041,265.2326,0,U,48228,999,24916,-.39595947E-3,-.134E-5,0
ONEWEB-0186,2021-031V,2026-06-22T14:20:34.749888,13.14503745,.0002034,87.8975,288.6184,102.1373,257.9985,0,U,48229,999,24909,-.20485838E-4,.5E-7,0
ONEWEB-0181,2021-031W,2026-06-22T13:48:36.413280,13.14503861,.00020916,87.8959,288.6511,106.0095,254.1266,0,U,48230,999,24894,-.5234014E-3,-.181E-5,0
ONEWEB-0188,2021-031X,2026-06-22T07:24:57.879936,13.14504547,.00020005,87.8961,288.7037,100.9770,259.1585,0,U,48231,999,24881,.75495113E-3,.293E-5,0
ONEWEB-0220,2021-031Y,2026-06-22T17:30:05.937696,13.14502818,.00022849,87.8976,288.5938,101.7462,258.3924,0,U,48232,999,24913,-.56603333E-3,-.197E-5,0
ONEWEB-0165,2021-031Z,2026-06-22T18:11:13.399872,13.14502108,.00021199,87.8968,288.6006,111.5901,248.5455,0,U,48233,999,24909,.3581613E-3,.146E-5,0
ONEWEB-0199,2021-031AA,2026-06-22T14:09:09.409536,13.14504024,.00018156,87.8976,288.6202,97.0916,263.0421,0,U,48234,999,24897,-.46132606E-3,-.158E-5,0
ONEWEB-0203,2021-031AB,2026-06-22T13:55:27.914016,13.14503057,.0001821,87.8974,288.6255,104.0931,256.0401,0,U,48235,999,24898,-.67269732E-3,-.237E-5,0
ONEWEB-0197,2021-031AC,2026-06-22T13:18:42.776064,13.14504633,.00021696,87.8967,288.6163,95.6423,264.4954,0,U,48236,999,24889,.25119088E-3,.106E-5,0
ONEWEB-0194,2021-031AD,2026-06-22T14:38:51.381888,13.14502621,.00017093,87.8970,288.6274,101.0218,259.1104,0,U,48237,999,24907,.31276693E-3,.129E-5,0
ONEWEB-0193,2021-031AE,2026-06-22T07:43:14.599200,13.14502913,.00015002,87.8968,288.6755,98.1472,261.9828,0,U,48238,999,24898,.51916508E-3,.205E-5,0
ONEWEB-0191,2021-031AF,2026-06-22T13:28:03.734976,13.14503340,.00020339,87.8978,288.6267,95.7080,264.4282,0,U,48239,999,24887,-.11592935E-3,-.3E-6,0
ONEWEB-0195,2021-031AG,2026-06-22T14:44:33.509472,13.14502233,.00021615,87.8974,288.6168,110.2612,249.8750,0,U,48240,999,24886,.51407729E-3,.203E-5,0
ONEWEB-0201,2021-031AH,2026-06-22T14:27:36.088128,13.14504007,.00022178,87.8966,288.6346,96.5363,263.6019,0,U,48241,999,24909,-.12282474E-3,-.33E-6,0
ONEWEB-0207,2021-031AJ,2026-06-22T17:38:06.055584,13.14503547,.00022025,87.8973,288.5934,97.0591,263.0790,0,U,48242,999,24902,-.56973683E-3,-.198E-5,0
ONEWEB-0208,2021-031AK,2026-06-22T13:32:37.180608,13.14504312,.00020777,87.8972,288.6337,110.7810,249.3543,0,U,48243,999,24901,-.21991126E-3,-.69E-6,0
ONEWEB-0200,2021-031AL,2026-06-22T16:19:19.252416,13.14503342,.00020355,87.8977,288.5978,102.6045,257.5312,0,U,48244,999,24895,.3708243E-3,.15E-5,0
ONEWEB-0217,2021-031AM,2026-06-22T14:52:32.345184,13.14501744,.00020494,87.8976,288.6142,111.3583,248.7766,0,U,48245,999,24889,.51997812E-3,.206E-5,0
