ONEWEB-0198             
1 48216U 21031G   26173.55495207  .00000115  00000+0  27607-3 0  9995
2 48216  87.8960 288.6413 0002207 111.3998 248.7368 13.14503092249197
ONEWEB-0189             
1 48217U 21031H   26173.56749404 -.00000070  00000+0 -22282-3 0  9994
2 48217  87.8973 288.6256 0002117 109.3802 250.7556 13.14503816248935
ONEWEB-0196             
1 48218U 21031J   26173.62141449  .00000246  00000+0  62778-3 0  9994
2 48218  87.8969 288.6238 0002049 104.0147 256.1211 13.14503910248943
ONEWEB-0183             
1 48219U 21031K   26173.59603749  .00000032  00000+0  52085-4 0  9991
2 48219  87.8965 288.6266 0002053  96.0521 264.0842 13.14504242249030
ONEWEB-0185             
1 48220U 21031L   26173.62220140  .00000294  00000+0  75762-3 0  9993
2 48220  87.8976 288.6154 0002381  98.8016 261.3384 13.14503309248968
ONEWEB-0187             
1 48221U 21031M   26173.67835214  .00000118  00000+0  28410-3 0  9996
2 48221  87.8965 288.6192 0002124 103.2203 256.9164 13.14502337248981
ONEWEB-0192             
1 48222U 21031N   26173.57224870 -.00000078  00000+0 -24546-3 0  9999
2 48222  87.8968 288.6309 0001986 103.5888 256.5464 13.14502365248881
ONEWEB-0219             
1 48223U 21031P   26173.55162569  .00000189  00000+0  47480-3 0  9997
2 48223  87.8971 288.6272 0002216 101.8493 258.2886 13.14501958249082
ONEWEB-0202             
1 48224U 21031Q   26173.30426139  .00000260  00000+0  66634-3 0  9999
2 48224  87.8970 288.6890 0002079 120.8771 239.2564 13.14503428249036
ONEWEB-0204             
1 48225U 21031R   26173.56668940 -.00000091  00000+0 -27978-3 0  9998
2 48225  87.8971 288.6310 0002135  89.7858 270.3517 13.14502608248961
ONEWEB-0205             
1 48226U 21031S   26173.61823193  .00000263  00000+0  67360-3 0  9996
2 48226  87.8977 288.6145 0002222 104.7618 255.3758 13.14501747248988
ONEWEB-0206             
1 48227U 21031T   26173.74350849 -.00000094  00000+0 -28930-3 0  9998
2 48227  87.8971 288.5908 0001796  98.4673 261.6660 13.14504665248955
ONEWEB-0182             
1 48228U 21031U   26173.73876039 -.00000134  00000+0 -39596-3 0  9997
2 48228  87.8969 288.5991 0002078  94.9041 265.2326 13.14503020249166
ONEWEB-0186             
1 48229U 21031V   26173.59762442  .00000005  00000+0 -20486-4 0  9999
2 48229  87.8975 288.6184 0002034 102.1373 257.9985 13.14503745249096
ONEWEB-0181             
1 48230U 21031W   26173.57542145 -.00000181  00000+0 -52340-3 0  9994
2 48230  87.8959 288.6511 0002091 106.0095 254.1266 13.14503861248944
ONEWEB-0188             
1 48231U 21031X   26173.30900324  .00000293  00000+0  75495-3 0  9991
2 48231  87.8961 288.7037 0002000 100.9770 259.1585 13.14504547248812
ONEWEB-0220             
1 48232U 21031Y   26173.72923539 -.00000197  00000+0 -56603-3 0  9996
2 48232  87.8976 288.5938 0002284 101.7462 258.3924 13.14502818249131
ONEWEB-0165             
1 48233U 21031Z   26173.75779398  .00000146  00000+0  35816-3 0  9997
2 48233  87.8968 288.6006 0002119 111.5901 248.5455 13.14502108249091
ONEWEB-0199             
1 48234U 21031AA  26173.58969224 -.00000158  00000+0 -46133-3 0  9997
2 48234  87.8976 288.6202 0001815  97.0916 263.0421 13.14504024248975
ONEWEB-0203             
1 48235U 21031AB  26173.58018419 -.00000237  00000+0 -67270-3 0  9992
2 48235  87.8974 288.6255 0001821 104.0931 256.0401 13.14503057248981
ONEWEB-0197             
1 48236U 21031AC  26173.55466176  .00000106  00000+0  25119-3 0  9996
2 48236  87.8967 288.6163 0002169  95.6423 264.4954 13.14504633248896
ONEWEB-0194             
1 48237U 21031AD  26173.61031692  .00000129  00000+0  31277-3 0  9992
2 48237  87.8970 288.6274 0001709 101.0218 259.1104 13.14502621249071
ONEWEB-0193             
1 48238U 21031AE  26173.32169675  .00000205  00000+0  51917-3 0  9992
2 48238  87.8968 288.6755 0001500  98.1472 261.9828 13.14502913248987
ONEWEB-0191             
1 48239U 21031AF  26173.56115434 -.00000030  00000+0 -11593-3 0  9997
2 48239  87.8978 288.6267 0002033  95.7080 264.4282 13.14503340248872
ONEWEB-0195             
1 48240U 21031AG  26173.61427673  .00000203  00000+0  51408-3 0  9995
2 48240  87.8974 288.6168 0002161 110.2612 249.8750 13.14502233248862
ONEWEB-0201             
1 48241U 21031AH  26173.60250102 -.00000033  00000+0 -12282-3 0  9996
2 48241  87.8966 288.6346 0002217  96.5363 263.6019 13.14504007249092
ONEWEB-0207             
1 48242U 21031AJ  26173.73479231 -.00000198  00000+0 -56974-3 0  9995
2 48242  87.8973 288.5934 0002202  97.0591 263.0790 13.14503547249027
ONEWEB-0208             
1 48243U 21031AK  26173.56431922 -.00000069  00000+0 -21991-3 0  9990
2 48243  87.8972 288.6337 0002077 110.7810 249.3543 13.14504312249015
ONEWEB-0200             
1 48244U 21031AL  26173.68008394  .00000150  00000+0  37082-3 0  9994
2 48244  87.8977 288.5978 0002035 102.6045 257.5312 13.14503342248954
ONEWEB-0217             
1 48245U 21031AM  26173.61981881  .00000206  00000+0  51998-3 0  9993
2 48245  87.8976 288.6142 0002049 111.3583 248.7766 13.14501744248899
